NORAD_CAT_ID,OBJECT_NAME,OBJECT_TYPE,EPOCH,MEAN_MOTION,ECCENTRICITY,INCLINATION,RA_OF_ASC_NODE,ARG_OF_PERICENTER,MEAN_ANOMALY,BSTAR,MEAN_MOTION_DOT,MEAN_MOTION_DDOT,TLE_LINE0,TLE_LINE1,TLE_LINE2,SEMIMAJOR_AXIS,PERIOD,APOGEE,PERIGEE,DECAYED
52621.0,STARLINK-3984,PAYLOAD,2024-01-22 09:45:44,15.0883398,0.0001379,53.2169,158.4721,98.4917,261.6231,3.853e-05,3.25e-06,0.0,0 STARLINK-3984,1 52621U 22052Z   24022.40676590  .00000325  00000-0  38530-4 0  9997,2 52621  53.2169 158.4721 0001379  98.4917 261.6231 15.08833980 94021,6917.899,95.438,540.718,538.81,0.0
52621.0,STARLINK-3984,PAYLOAD,2024-01-22 14:31:53,15.08838506,0.000145,53.2165,157.5811,103.5588,256.5565,4.7224e-05,4.64e-06,0.0,0 STARLINK-3984,1 52621U 22052Z   24022.60548421  .00000464  00000-0  47224-4 0  9994,2 52621  53.2165 157.5811 0001450 103.5588 256.5565 15.08838506 93671,6917.885,95.438,540.753,538.747,0.0
52621.0,STARLINK-3984,PAYLOAD,2024-01-23 14:22:40,15.08844216,0.0001475,53.216,153.1238,107.4879,252.6275,5.634e-05,6.09e-06,0.0,0 STARLINK-3984,1 52621U 22052Z   24023.59908307  .00000609  00000-0  56340-4 0  9996,2 52621  53.2160 153.1238 0001475 107.4879 252.6275 15.08844216 94204,6917.868,95.437,540.753,538.712,0.0
52621.0,STARLINK-3984,PAYLOAD,2024-01-24 14:13:28,15.08842105,0.0001507,53.2162,148.6634,106.1477,253.9681,-2.4584e-05,-6.79e-06,0.0,0 STARLINK-3984,1 52621U 22052Z   24024.59268963 -.00000679  00000-0 -24584-4 0  9998,2 52621  53.2162 148.6634 0001507 106.1477 253.9681 15.08842105 93974,6917.874,95.437,540.781,538.696,0.0
52621.0,STARLINK-3984,PAYLOAD,2024-01-24 15:48:51,15.08839769,0.0001482,53.2169,148.3668,75.9499,284.1658,4.2653e-05,3.91e-06,0.0,0 STARLINK-3984,1 52621U 22052Z   24024.65893127  .00000391  00000-0  42653-4 0  9997,2 52621  53.2169 148.3668 0001482  75.9499 284.1658 15.08839769 94360,6917.881,95.438,540.771,538.721,0.0
52621.0,STARLINK-3984,PAYLOAD,2024-01-25 14:04:15,15.08842554,0.0001257,53.216,144.2042,93.8213,266.2923,1.3648e-05,-7.1e-07,0.0,0 STARLINK-3984,1 52621U 22052Z   24025.58629084 -.00000071  00000-0  13648-4 0  9997,2 52621  53.2160 144.2042 0001257  93.8213 266.2923 15.08842554 94121,6917.873,95.437,540.607,538.868,0.0
52621.0,STARLINK-3984,PAYLOAD,2024-01-26 13:55:01,15.08852615,0.0001368,53.2162,139.7437,82.958,277.1568,0.00011257,1.505e-05,0.0,0 STARLINK-3984,1 52621U 22052Z   24026.57988377  .00001505  00000-0  11257-3 0  9995,2 52621  53.2162 139.7437 0001368  82.9580 277.1568 15.08852615 94270,6917.842,95.437,540.653,538.76,0.0
52621.0,STARLINK-3984,PAYLOAD,2024-01-27 12:10:26,15.08837441,0.0001326,53.2161,135.5809,108.1446,251.9691,8.0052e-05,9.86e-06,0.0,0 STARLINK-3984,1 52621U 22052Z   24027.50725218  .00000986  00000-0  80052-4 0  9994,2 52621  53.2161 135.5809 0001326 108.1446 251.9691 15.08837441 94796,6917.888,95.438,540.671,538.836,0.0
52621.0,STARLINK-3984,PAYLOAD,2024-01-27 13:45:49,15.08834966,0.0001285,53.2164,135.2845,98.3456,261.7682,8.9891e-05,1.143e-05,0.0,0 STARLINK-3984,1 52621U 22052Z   24027.57349369  .00001143  00000-0  89891-4 0  9996,2 52621  53.2164 135.2845 0001285  98.3456 261.7682 15.08834966 94429,6917.896,95.438,540.65,538.872,0.0
52621.0,STARLINK-3984,PAYLOAD,2024-01-28 13:36:37,15.08842106,0.0001519,53.2172,130.8243,105.4522,254.6638,-7.7777e-05,-1.526e-05,0.0,0 STARLINK-3984,1 52621U 22052Z   24028.56709516 -.00001526  00000-0 -77777-4 0  9997,2 52621  53.2172 130.8243 0001519 105.4522 254.6638 15.08842106 94578,6917.874,95.437,540.79,538.688,0.0
52621.0,STARLINK-3984,PAYLOAD,2024-01-28 16:47:23,15.08826429,0.0001673,53.2168,130.2275,105.51,254.6077,0.00015863,2.237e-05,0.0,0 STARLINK-3984,1 52621U 22052Z   24028.69957757  .00002237  00000-0  15863-3 0  9998,2 52621  53.2168 130.2275 0001673 105.5100 254.6077 15.08826429 94977,6917.922,95.438,540.944,538.63,0.0
52621.0,STARLINK-3984,PAYLOAD,2024-01-29 11:52:00,15.08844089,0.0001501,53.217,126.6617,102.177,257.939,0.00012696,1.733e-05,0.0,0 STARLINK-3984,1 52621U 22052Z   24029.49444762  .00001733  00000-0  12696-3 0  9995,2 52621  53.2170 126.6617 0001501 102.1770 257.9390 15.08844089 95095,6917.868,95.437,540.771,538.695,0.0
52621.0,STARLINK-3984,PAYLOAD,2024-01-30 11:42:48,15.08823408,0.0001376,53.2169,122.2014,93.5023,266.6126,0.00013691,1.891e-05,0.0,0 STARLINK-3984,1 52621U 22052Z   24030.48806223  .00001891  00000-0  13691-3 0  9991,2 52621  53.2169 122.2014 0001376  93.5023 266.6126 15.08823408 95243,6917.931,95.439,540.748,538.844,0.0
52621.0,STARLINK-3984,PAYLOAD,2024-01-31 11:33:34,15.08845607,0.0001388,53.2167,117.739,105.3667,254.7479,-2.9989e-05,-7.65e-06,0.0,0 STARLINK-3984,1 52621U 22052Z   24031.48165495 -.00000765  00000-0 -29989-4 0  9990,2 52621  53.2167 117.7390 0001388 105.3667 254.7479 15.08845607 95396,6917.863,95.437,540.688,538.768,0.0
52621.0,STARLINK-3984,PAYLOAD,2024-01-31 14:44:21,15.08847049,0.0001807,53.2173,117.144,121.0271,239.0899,-2.1905e-05,-6.37e-06,0.0,0 STARLINK-3984,1 52621U 22052Z   24031.61413263 -.00000637  00000-0 -21905-4 0  9992,2 52621  53.2173 117.1440 0001807 121.0271 239.0899 15.08847049 95030,6917.859,95.437,540.974,538.474,0.0
52621.0,STARLINK-3984,PAYLOAD,2024-02-01 11:24:20,15.0888269,0.0002734,53.217,113.2801,149.6906,210.4244,-0.00021812,-3.763e-05,0.0,0 STARLINK-3984,1 52621U 22052Z   24032.47523661 -.00003763  00000-0 -21812-3 0  9990,2 52621  53.2170 113.2801 0002734 149.6906 210.4244 15.08882690 95540,6917.75,95.435,541.506,537.724,0.0
52621.0,STARLINK-3984,PAYLOAD,2024-02-01 14:35:08,15.08842334,0.0001611,53.2173,112.6836,107.4821,252.6348,0.00010191,1.334e-05,0.0,0 STARLINK-3984,1 52621U 22052Z   24032.60773561  .00001334  00000-0  10191-3 0  9999,2 52621  53.2173 112.6836 0001611 107.4821 252.6348 15.08842334 95189,6917.873,95.437,540.853,538.624,0.0
52621.0,STARLINK-3984,PAYLOAD,2024-02-02 14:25:54,15.08851718,0.0001584,53.2176,108.2234,98.6961,261.4211,9.5851e-05,1.238e-05,0.0,0 STARLINK-3984,1 52621U 22052Z   24033.60132869  .00001238  00000-0  95851-4 0  9990,2 52621  53.2176 108.2234 0001584  98.6961 261.4211 15.08851718 95330,6917.845,95.437,540.805,538.614,0.0
52621.0,STARLINK-3984,PAYLOAD,2024-02-03 11:05:56,15.08846442,0.0001965,53.2174,104.3597,132.5272,227.5886,-5.9595e-05,-1.237e-05,0.0,0 STARLINK-3984,1 52621U 22052Z   24034.46245762 -.00001237  00000-0 -59595-4 0  9998,2 52621  53.2174 104.3597 0001965 132.5272 227.5886 15.08846442 95848,6917.861,95.437,541.085,538.366,0.0
52621.0,STARLINK-3984,PAYLOAD,2024-02-03 14:16:42,15.08849667,0.0001391,53.2172,103.7625,123.8035,236.3089,-4.2726e-05,-9.68e-06,0.0,0 STARLINK-3984,1 52621U 22052Z   24034.59493380 -.00000968  00000-0 -42726-4 0  9991,2 52621  53.2172 103.7625 0001391 123.8035 236.3089 15.08849667 95489,6917.851,95.437,540.678,538.754,0.0
52621.0,STARLINK-3984,PAYLOAD,2024-02-04 10:56:42,15.08852653,0.0001562,53.2176,99.899,81.7591,278.3578,1.3198e-05,-7.8e-07,0.0,0 STARLINK-3984,1 52621U 22052Z   24035.45605124 -.00000078  00000-0  13198-4 0  9990,2 52621  53.2176  99.8990 0001562  81.7591 278.3578 15.08852653 95615,6917.842,95.437,540.787,538.626,0.0
52621.0,STARLINK-3984,PAYLOAD,2024-02-05 04:25:58,15.0883685,0.0001455,53.2174,96.6253,110.12,249.9949,-1.1724e-05,-4.75e-06,0.0,0 STARLINK-3984,1 52621U 22052Z   24036.18470049 -.00000475  00000-0 -11724-4 0  9992,2 52621  53.2174  96.6253 0001455 110.1200 249.9949 15.08836850 96107,6917.89,95.438,540.762,538.748,0.0
52621.0,STARLINK-3984,PAYLOAD,2024-02-05 10:47:30,15.08843419,0.0001551,53.217,95.4385,102.1253,257.9913,7.7406e-05,9.44e-06,0.0,0 STARLINK-3984,1 52621U 22052Z   24036.44965504  .00000944  00000-0  77406-4 0  9994,2 52621  53.2170  95.4385 0001551 102.1253 257.9913 15.08843419 96145,6917.87,95.437,540.808,538.662,0.0
52621.0,STARLINK-3984,PAYLOAD,2024-02-06 02:41:22,15.08836348,0.0001564,53.2174,92.4666,97.8689,262.2481,5.1459e-05,5.31e-06,0.0,0 STARLINK-3984,1 52621U 22052Z   24037.11206069  .00000531  00000-0  51459-4 0  9995,2 52621  53.2174  92.4666 0001564  97.8689 262.2481 15.08836348 96248,6917.892,95.438,540.839,538.675,0.0
52621.0,STARLINK-3984,PAYLOAD,2024-02-06 09:02:54,15.08838746,0.000156,53.2169,91.2755,96.8091,263.3078,2.2813e-06,-2.52e-06,0.0,0 STARLINK-3984,1 52621U 22052Z   24037.37702192 -.00000252  00000-0  22813-5 0  9995,2 52621  53.2169  91.2755 0001560  96.8091 263.3078 15.08838746 95900,6917.884,95.438,540.828,538.67,0.0
52621.0,STARLINK-3984,PAYLOAD,2024-02-07 12:04:27,15.08847909,0.0001784,53.2172,86.2208,104.2087,255.9103,1.5796e-05,-3.7e-07,0.0,0 STARLINK-3984,1 52621U 22052Z   24038.50309753 -.00000037  00000-0  15796-4 0  9999,2 52621  53.2172  86.2208 0001784 104.2087 255.9103 15.08847909 96456,6917.856,95.437,540.955,538.487,0.0
52621.0,STARLINK-3984,PAYLOAD,2024-02-07 20:01:23,15.08836796,0.0001788,53.2171,84.7332,85.499,274.6206,3.8939e-05,3.32e-06,0.0,0 STARLINK-3984,1 52621U 22052Z   24038.83430510  .00000332  00000-0  38939-4 0  9992,2 52621  53.2171  84.7332 0001788  85.4990 274.6206 15.08836796 96503,6917.89,95.438,540.992,538.518,0.0
52621.0,STARLINK-3984,PAYLOAD,2024-02-08 10:19:52,15.08832598,0.000169,53.2168,82.057,76.4807,283.6374,2.4476e-05,1.01e-06,0.0,0 STARLINK-3984,1 52621U 22052Z   24039.43047174  .00000101  00000-0  24476-4 0  9994,2 52621  53.2168  82.0570 0001690  76.4807 283.6374 15.08832598 96594,6917.903,95.438,540.937,538.599,0.0
52621.0,STARLINK-3984,PAYLOAD,2024-02-08 11:55:15,15.08835718,0.0001937,53.2184,81.7589,91.0994,269.022,4.2563e-05,3.89e-06,0.0,0 STARLINK-3984,1 52621U 22052Z   24039.49670928  .00000389  00000-0  42563-4 0  9994,2 52621  53.2184  81.7589 0001937  91.0994 269.0220 15.08835718 96227,6917.893,95.438,541.098,538.418,0.0
52621.0,STARLINK-3984,PAYLOAD,2024-02-09 11:46:01,15.08850815,0.0001827,53.2184,77.2922,74.2156,285.9038,8.5616e-05,1.075e-05,0.0,0 STARLINK-3984,1 52621U 22052Z   24040.49030000  .00001075  00000-0  85616-4 0  9996,2 52621  53.2184  77.2922 0001827  74.2156 285.9038 15.08850815 96756,6917.847,95.437,540.976,538.448,0.0
